City,Business Type,Name,Address,Phone Number,Opening Hours
Paris,cbd shop,"CBD SHOP PARIS Boutique De CBD,THCP,HHCP,VMAC,HHC,HDH,THCV,H4CBD,HHCPO","54 Av. de Flandre, 75019 Paris, France",07 49 66 17 31,"Monday: 10:00 AM – 10:00 PM, Tuesday: 10:00 AM – 10:00 PM, Wednesday: 10:00 AM – 10:00 PM, Thursday: 10:00 AM – 10:00 PM, Friday: 10:00 AM – 10:00 PM, Saturday: 10:00 AM – 10:00 PM, Sunday: 10:30 AM – 10:00 PM"
Paris,cbd shop,CBD Paris 18 - Deli Hemp Montmartre,"19 Rue Muller, 75018 Paris, France",06 59 13 15 39,"Monday: 2:30 – 10:00 PM, Tuesday: Closed, Wednesday: 3:00 – 10:00 PM, Thursday: 3:30 – 10:00 PM, Friday: 3:30 – 10:30 PM, Saturday: 3:30 – 10:30 PM, Sunday: 3:30 – 10:00 PM"
Paris,cbd shop,CBD Paris 15 - Nature Verte,"186 Rue de la Convention, 75015 Paris, France",06 10 16 76 09,
Paris,cbd shop,CUP OF SMOKE CBD Paris Shop,"CUP OF SMOKE, 62 Rue Sedaine, 75011 Paris, France",06 21 99 19 31,"Monday: 12:00 – 9:30 PM, Tuesday: 12:00 – 9:30 PM, Wednesday: 12:00 – 9:30 PM, Thursday: 12:00 – 9:30 PM, Friday: 12:00 – 9:30 PM, Saturday: 12:00 – 9:30 PM, Sunday: Closed"
Paris,cbd shop,BEUD - CBD Shop paris 5,"6 Rue Dante, 75005 Paris, France",09 52 26 49 80,"Monday: 11:00 AM – 8:00 PM, Tuesday: 11:00 AM – 8:00 PM, Wednesday: 11:00 AM – 8:00 PM, Thursday: 11:00 AM – 8:00 PM, Friday: 11:00 AM – 8:00 PM, Saturday: 11:00 AM – 8:00 PM, Sunday: 11:00 AM – 7:30 PM"
Paris,cbd shop,CBD SHOP PARIS Magasin De CBD,"180 Av. de Clichy, 75017 Paris, France",01 42 63 25 19,"Monday: 10:30 AM – 7:30 PM, Tuesday: 10:30 AM – 7:30 PM, Wednesday: 10:30 AM – 7:30 PM, Thursday: 10:30 AM – 7:30 PM, Friday: 10:30 AM – 4:00 PM, Saturday: Closed, Sunday: Closed"
Paris,cbd shop,CBD Shop,"156 Rue La Fayette, 75010 Paris, France",,"Monday: 6:00 AM – 8:30 PM, Tuesday: 6:00 AM – 8:30 PM, Wednesday: 6:00 AM – 8:30 PM, Thursday: 6:00 AM – 8:30 PM, Friday: 6:00 AM – 8:30 PM, Saturday: 7:00 AM – 8:30 PM, Sunday: Closed"
Paris,cbd shop,Deli-Hemp,"33 Rue Mazarine, 75006 Paris, France",07 53 08 31 84,"Monday: 11:00 AM – 8:00 PM, Tuesday: 11:00 AM – 8:00 PM, Wednesday: 11:00 AM – 8:00 PM, Thursday: 11:00 AM – 8:00 PM, Friday: 11:00 AM – 8:00 PM, Saturday: 11:00 AM – 8:00 PM, Sunday: Closed"
Paris,cbd shop,Deli Hemp CBD Shop,"95 Rue de Belleville, 75019 Paris, France",09 54 21 24 00,"Monday: 11:00 AM – 8:00 PM, Tuesday: 11:00 AM – 8:00 PM, Wednesday: 11:00 AM – 8:00 PM, Thursday: 11:00 AM – 8:00 PM, Friday: 11:00 AM – 8:00 PM, Saturday: 11:00 AM – 8:00 PM, Sunday: 11:00 AM – 8:00 PM"
Paris,cbd shop,Belle Des Chanvres CBD Shop,"77 Rue de Bagnolet, 75020 Paris, France",01 86 04 07 28,"Monday: 2:00 – 8:00 PM, Tuesday: 2:00 – 8:00 PM, Wednesday: 2:00 – 8:00 PM, Thursday: 2:00 – 8:00 PM, Friday: 2:00 – 8:00 PM, Saturday: 2:00 – 8:00 PM, Sunday: 2:00 – 8:00 PM"
Marseille,cbd shop,Love CBD Chutes-Lavie,"6B Av. des Chutes Lavie, 13004 Marseille, France",04 88 86 68 33,"Monday: Open 24 hours, Tuesday: Open 24 hours, Wednesday: Open 24 hours, Thursday: Open 24 hours, Friday: Open 24 hours, Saturday: Open 24 hours, Sunday: Open 24 hours"
Marseille,cbd shop,Alimentation cbd Shop,"2 Bd de la Fédération, 13004 Marseille, France",06 34 21 81 66,"Monday: 2:00 PM – 6:00 AM, Tuesday: 2:00 PM – 6:00 AM, Wednesday: 2:00 PM – 6:00 AM, Thursday: 2:00 PM – 6:00 AM, Friday: 2:00 PM – 6:00 AM, Saturday: 2:00 PM – 6:00 AM, Sunday: 2:00 PM – 6:00 AM"
Marseille,cbd shop,Alimentation et cbd workshop,"8 Rue Gorde, 13010 Marseille, France",07 61 54 09 82,"Monday: Open 24 hours, Tuesday: Open 24 hours, Wednesday: Open 24 hours, Thursday: Open 24 hours, Friday: Open 24 hours, Saturday: Open 24 hours, Sunday: Open 24 hours"
Marseille,cbd shop,Cbd shop,"14 Rue Navarin, 13006 Marseille, France",07 66 24 61 35,"Monday: 11:00 AM – 8:00 PM, Tuesday: 11:00 AM – 8:00 PM, Wednesday: 11:00 AM – 8:00 PM, Thursday: 11:00 AM – 8:00 PM, Friday: 11:00 AM – 8:00 PM, Saturday: 11:00 AM – 8:00 PM, Sunday: 11:00 AM – 8:00 PM"
Marseille,cbd shop,shop by night,"159 Bd de Saint-Marcel, 13011 Marseille, France",07 66 24 61 35,"Monday: 11:00 AM – 11:00 PM, Tuesday: 11:00 AM – 11:00 PM, Wednesday: 11:00 AM – 11:00 PM, Thursday: 11:00 AM – 11:00 PM, Friday: 11:00 AM – 11:00 PM, Saturday: 11:00 AM – 11:00 PM, Sunday: 11:00 AM – 11:00 PM"
Marseille,cbd shop,cbd shop bien etre,"68 bis Bd Vauban, 13006 Marseille, France",07 66 24 61 35,"Monday: 11:00 AM – 7:00 PM, Tuesday: 11:00 AM – 7:00 PM, Wednesday: 11:00 AM – 7:00 PM, Thursday: 11:00 AM – 7:00 PM, Friday: 11:00 AM – 7:00 PM, Saturday: 11:00 AM – 7:00 PM, Sunday: 11:00 AM – 7:00 PM"
Marseille,cbd shop,Cbd Pas Cher,"5 bis Rue Bussy l'Indien, 13006 Marseille, France",07 84 70 54 68,"Monday: 11:30 AM – 7:30 PM, Tuesday: 11:30 AM – 7:30 PM, Wednesday: 11:30 AM – 7:30 PM, Thursday: 11:30 AM – 7:30 PM, Friday: 11:30 AM – 7:30 PM, Saturday: 11:30 AM – 7:30 PM, Sunday: Closed"
Marseille,cbd shop,Cbd coffee l estak,"155 Bd Roger Chieusse, 13016 Marseille, France",06 23 98 45 10,"Monday: 11:00 AM – 9:00 PM, Tuesday: 11:00 AM – 9:00 PM, Wednesday: 11:00 AM – 9:00 PM, Thursday: 11:00 AM – 9:00 PM, Friday: 11:00 AM – 9:00 PM, Saturday: 11:00 AM – 9:00 PM, Sunday: 11:00 AM – 9:00 PM"
Marseille,cbd shop,COSMODOG.fr,"9 Rue César Aleman, 13007 Marseille, France",06 33 42 71 89,"Monday: Open 24 hours, Tuesday: Open 24 hours, Wednesday: Open 24 hours, Thursday: Open 24 hours, Friday: Open 24 hours, Saturday: Open 24 hours, Sunday: Closed"
Marseille,cbd shop,Lvk CBD (anciennement Popeye CBD),"138 Av. de Saint-Antoine, 13015 Marseille, France",04 88 00 94 46,"Monday: 12:00 – 7:00 PM, Tuesday: 12:00 – 7:00 PM, Wednesday: 12:00 – 7:00 PM, Thursday: 12:00 – 7:00 PM, Friday: 12:00 – 7:00 PM, Saturday: 12:00 – 7:00 PM, Sunday: Closed"
Marseille,cbd shop,L'INDICA CBD SHOP,"37 Rue Caisserie, 13002 Marseille, France",,"Monday: Closed, Tuesday: 2:00 – 6:30 PM, Wednesday: 2:00 – 7:30 PM, Thursday: 2:30 – 7:30 PM, Friday: 2:00 – 7:30 PM, Saturday: 2:30 – 6:45 PM, Sunday: 2:30 – 6:30 PM"
Marseille,cbd shop,CBD13ZEN - CBD Marseille,"80 Rue Saint-Sébastien, 13006 Marseille, France",06 44 76 48 71,"Monday: 11:00 AM – 1:30 PM, 2:30 – 7:30 PM, Tuesday: 11:00 AM – 1:30 PM, 2:30 – 7:30 PM, Wednesday: 11:00 AM – 1:30 PM, 2:30 – 7:30 PM, Thursday: 11:00 AM – 1:30 PM, 2:30 – 7:30 PM, Friday: 11:00 AM – 1:30 PM, 2:30 – 7:30 PM, Saturday: 11:00 AM – 1:30 PM, 2:30 – 7:30 PM, Sunday: Closed"
Marseille,cbd shop,Cbd Marseille st loup,"29 Bd de Saint-Loup, 13010 Marseille, France",07 65 69 01 70,"Monday: 10:00 AM – 7:00 PM, Tuesday: 10:00 AM – 7:00 PM, Wednesday: 10:00 AM – 7:00 PM, Thursday: 10:00 AM – 7:00 PM, Friday: 10:00 AM – 7:00 PM, Saturday: 10:00 AM – 7:00 PM, Sunday: 10:00 AM – 1:00 PM"
Marseille,cbd shop,All Cbd Premium,"557 Rue Saint-Pierre, 13012 Marseille, France",06 34 56 19 17,"Monday: 1:00 – 6:00 PM, Tuesday: 1:00 – 6:00 PM, Wednesday: 12:00 – 6:00 PM, Thursday: 2:00 – 6:00 PM, Friday: 2:30 – 7:00 PM, Saturday: Closed, Sunday: Closed"
Marseille,cbd shop,STRWEED C.B.D Livrison,"38 Rue Aviateur le Brix, 13009 Marseille, France",,
Marseille,cbd shop,Artemis,"96 Bd de la Libération, 13004 Marseille, France",,"Monday: 11:00 AM – 7:30 PM, Tuesday: 11:00 AM – 7:30 PM, Wednesday: 11:00 AM – 7:30 PM, Thursday: 11:00 AM – 7:30 PM, Friday: 11:00 AM – 7:30 PM, Saturday: 11:00 AM – 7:30 PM, Sunday: Closed"
Marseille,cbd shop,CBD Land,"27 Rue d'Alger, 13006 Marseille, France",06 44 76 48 71,"Monday: 11:00 AM – 7:30 PM, Tuesday: 11:00 AM – 7:30 PM, Wednesday: 11:00 AM – 7:30 PM, Thursday: 11:00 AM – 7:30 PM, Friday: 11:00 AM – 7:30 PM, Saturday: 11:00 AM – 7:30 PM, Sunday: Closed"
Marseille,cbd shop,Grass On Mars,"22 Rue des 3 Frères Carasso, 13004 Marseille, France",09 80 83 77 73,"Monday: Closed, Tuesday: 11:30 AM – 2:00 PM, 3:30 – 7:30 PM, Wednesday: 11:30 AM – 2:00 PM, 3:30 – 7:30 PM, Thursday: 11:30 AM – 2:00 PM, 3:30 – 7:30 PM, Friday: 11:30 AM – 2:00 PM, 3:30 – 7:30 PM, Saturday: 11:30 AM – 2:00 PM, 3:30 – 7:30 PM, Sunday: Closed"
Lyon,cbd shop,CBD Docks,"146 Av. du 25ème Régiment de Tirailleurs Sénégalais, 69009 Lyon, France",07 89 28 04 91,"Monday: Open 24 hours, Tuesday: Open 24 hours, Wednesday: Open 24 hours, Thursday: Open 24 hours, Friday: Open 24 hours, Saturday: Open 24 hours, Sunday: Open 24 hours"
Lyon,cbd shop,CBD Shop Lyon 4 Douceuressentielles Livraison cbd Lyon Express 69004,"34 Gd Rue de la Croix-Rousse, 69004 Lyon, France",06 24 83 73 85,"Monday: 11:30 AM – 8:00 PM, Tuesday: 11:30 AM – 8:00 PM, Wednesday: 11:30 AM – 8:00 PM, Thursday: 11:30 AM – 8:00 PM, Friday: 11:30 AM – 8:00 PM, Saturday: 11:30 AM – 8:00 PM, Sunday: Closed"
Lyon,cbd shop,CBD Lyon Frenchy Freeze - Livraison CBD Express | Boutique CBD Lyon,"10 Pl. Saint-Paul, 69005 Lyon, France",04 28 67 86 34,"Monday: 11:30 AM – 1:30 PM, 3:00 – 8:00 PM, Tuesday: 11:30 AM – 1:30 PM, 3:00 – 8:00 PM, Wednesday: 11:30 AM – 1:30 PM, 3:00 – 8:00 PM, Thursday: 11:30 AM – 1:30 PM, 3:00 – 8:00 PM, Friday: 11:30 AM – 1:30 PM, 3:00 – 8:00 PM, Saturday: 1:00 – 8:00 PM, Sunday: Closed"
Lyon,cbd shop,VII vap vape cbd shop,"33 Av. Jean Jaurès, 69007 Lyon, France",09 50 76 05 08,"Monday: 9:00 AM – 7:30 PM, Tuesday: 9:30 AM – 7:30 PM, Wednesday: 10:00 AM – 7:30 PM, Thursday: 9:30 AM – 7:30 PM, Friday: 9:30 AM – 7:30 PM, Saturday: 9:30 AM – 7:30 PM, Sunday: 10:30 AM – 7:30 PM"
Lyon,cbd shop,Philgood cbd shop,"4 Rue de la République, 69001 Lyon, France",06 24 21 59 51,"Monday: 8:30 AM – 6:00 PM, Tuesday: 8:30 AM – 6:00 PM, Wednesday: 8:30 AM – 6:00 PM, Thursday: 8:30 AM – 6:00 PM, Friday: 8:30 AM – 6:00 PM, Saturday: 8:30 AM – 6:00 PM, Sunday: Closed"
Lyon,cbd shop,CBD Lyonnais,"6 Rue Dugas-Montbel, 69002 Lyon, France",,"Monday: 10:00 AM – 8:00 PM, Tuesday: 10:00 AM – 8:00 PM, Wednesday: 10:00 AM – 8:00 PM, Thursday: 10:00 AM – 8:00 PM, Friday: 10:00 AM – 8:00 PM, Saturday: 10:00 AM – 8:00 PM, Sunday: 1:00 – 8:00 PM"
Lyon,cbd shop,Frenchy Freeze/ Livraison CBD Vernon,"69002 Lyon, France",04 28 67 86 34,"Monday: 9:00 AM – 8:00 PM, Tuesday: 9:00 AM – 8:00 PM, Wednesday: 9:00 AM – 8:00 PM, Thursday: 9:00 AM – 8:00 PM, Friday: 9:00 AM – 8:00 PM, Saturday: 9:00 AM – 8:00 PM, Sunday: Closed"
Lyon,cbd shop,CigaMax - Cigarette électronique e-liquide cbd Lyon 3,"93 Rue Molière, 69003 Lyon, France",09 72 14 38 30,"Monday: Open 24 hours, Tuesday: Open 24 hours, Wednesday: Open 24 hours, Thursday: Open 24 hours, Friday: Open 24 hours, Saturday: Open 24 hours, Sunday: Open 24 hours"
Lyon,cbd shop,Cbd shop France Tassin-la-demi-lune,"29 Av. de la République, 69160 Tassin-la-Demi-Lune, France",04 78 83 28 84,"Monday: 10:00 AM – 7:00 PM, Tuesday: 10:00 AM – 7:00 PM, Wednesday: 10:00 AM – 7:00 PM, Thursday: 10:00 AM – 7:00 PM, Friday: 10:00 AM – 7:00 PM, Saturday: 10:00 AM – 7:00 PM, Sunday: Closed"
Lyon,cbd shop,CBD France Lyon & Online (fermé momentanément),"17 Rue Richan, 69004 Lyon, France",,
Lyon,cbd shop,Tabac PÊCHERIE 7/7 - CBD - VAPE SHOP- CIGARETTES ÉLECTRONIQUES - JEUX,"10 Quai de la Pêcherie, 69001 Lyon, France",04 78 58 67 43,"Monday: 6:00 AM – 12:00 AM, Tuesday: 6:00 AM – 12:00 AM, Wednesday: 6:00 AM – 12:00 AM, Thursday: 6:00 AM – 12:00 AM, Friday: 6:00 AM – 12:00 AM, Saturday: 6:00 AM – 12:00 AM, Sunday: 6:00 AM – 12:00 AM"
Lyon,cbd shop,CBD 180 & VAPE - LYON 69002 GARE PERRACHE,"Centre d'échange de Lyon, 2 Cr de Verdun Perrache 2 ème niveau, 69002 Lyon, France",06 65 63 26 45,
Toulouse,cbd shop,Bloomers CBD,"13 Rue Temponières, 31000 Toulouse, France",06 59 61 20 98,"Monday: 11:00 AM – 2:00 PM, 3:00 – 7:00 PM, Tuesday: 11:00 AM – 2:00 PM, 3:00 – 7:00 PM, Wednesday: 11:00 AM – 2:00 PM, 3:00 – 7:00 PM, Thursday: 11:00 AM – 2:00 PM, 3:00 – 7:00 PM, Friday: 11:00 AM – 2:00 PM, 3:00 – 7:00 PM, Saturday: 11:00 AM – 2:00 PM, 3:00 – 7:00 PM, Sunday: Closed"
Toulouse,cbd shop,LA CASA DEL CBD,"5 Av. Jean Rieux, 31500 Toulouse, France",06 27 79 32 26,"Monday: 1:00 – 7:00 PM, Tuesday: 1:00 – 7:00 PM, Wednesday: 1:00 – 7:00 PM, Thursday: 1:00 – 7:00 PM, Friday: 1:00 – 7:00 PM, Saturday: 1:00 – 7:00 PM, Sunday: Closed"
Toulouse,cbd shop,Le Temps du CBD,"69 Rte de Narbonne, 31400 Toulouse, France",05 34 41 28 44,"Monday: 9:30 AM – 7:00 PM, Tuesday: 9:30 AM – 7:00 PM, Wednesday: 9:30 AM – 7:00 PM, Thursday: 9:30 AM – 7:00 PM, Friday: 9:30 AM – 7:00 PM, Saturday: 9:30 AM – 7:00 PM, Sunday: Closed"
Toulouse,cbd shop,Côté Chanvre CBD Toulouse,"4 Av. de la Gloire, 31500 Toulouse, France",06 59 42 48 10,"Monday: Closed, Tuesday: 11:00 AM – 7:00 PM, Wednesday: 11:00 AM – 7:00 PM, Thursday: 11:00 AM – 7:00 PM, Friday: 11:00 AM – 7:00 PM, Saturday: 12:00 – 7:00 PM, Sunday: Closed"
Toulouse,cbd shop,Sweet CBD - Les Minimes,"133 Av. des Minimes, 31200 Toulouse, France",05 31 47 22 57,"Monday: 2:00 – 7:00 PM, Tuesday: 10:00 AM – 12:00 PM, 2:00 – 7:00 PM, Wednesday: 10:00 AM – 12:00 PM, 2:00 – 7:00 PM, Thursday: 10:00 AM – 12:00 PM, 2:00 – 7:00 PM, Friday: 10:00 AM – 12:00 PM, 2:00 – 7:00 PM, Saturday: 10:00 AM – 7:00 PM, Sunday: Closed"
Toulouse,cbd shop,Tabac Le Français / CBD Shop,"23 Pl. Etienne Esquirol, 31000 Toulouse, France",05 54 93 05 08,"Monday: 7:30 AM – 7:30 PM, Tuesday: 7:30 AM – 7:30 PM, Wednesday: 7:30 AM – 7:30 PM, Thursday: 7:30 AM – 7:30 PM, Friday: 7:30 AM – 7:30 PM, Saturday: 9:00 AM – 7:00 PM, Sunday: Closed"
Toulouse,cbd shop,Vapot'in & CBD,"33 Bd André Netwiller, 31200 Toulouse, France",09 75 69 34 71,"Monday: 3:00 – 7:00 PM, Tuesday: 10:00 AM – 12:30 PM, 3:00 – 7:00 PM, Wednesday: 10:00 AM – 12:30 PM, 3:00 – 7:00 PM, Thursday: 10:00 AM – 12:30 PM, 3:00 – 7:00 PM, Friday: 10:00 AM – 12:30 PM, 3:00 – 7:00 PM, Saturday: 10:00 AM – 12:30 PM, 3:00 – 7:00 PM, Sunday: Closed"
Toulouse,cbd shop,Sweet CBD Portet-sur-Garonne,"16 Rue Principale, 31120 Portet-sur-Garonne, France",05 32 53 81 71,"Monday: 2:00 – 7:00 PM, Tuesday: 10:00 AM – 12:00 PM, 2:00 – 7:00 PM, Wednesday: 10:15 AM – 12:00 PM, 2:00 – 7:00 PM, Thursday: 10:00 AM – 12:00 PM, 2:00 – 7:00 PM, Friday: 10:00 AM – 12:00 PM, 2:00 – 7:00 PM, Saturday: 10:00 AM – 7:00 PM, Sunday: Closed"
Toulouse,cbd shop,MY CBD SHOP L'UNION,"85 Av. des Pyrénées, 31240 L'Union, France",05 62 78 13 75,"Monday: 8:30 AM – 7:30 PM, Tuesday: 8:30 AM – 7:30 PM, Wednesday: 8:30 AM – 7:30 PM, Thursday: 8:30 AM – 7:30 PM, Friday: 8:30 AM – 7:30 PM, Saturday: 8:30 AM – 7:30 PM, Sunday: Closed"
Nice,cbd shop,Like CBD,"33 Bd Gambetta, 06000 Nice, France",09 81 08 08 78,"Monday: 10:00 AM – 7:00 PM, Tuesday: 10:00 AM – 7:00 PM, Wednesday: 10:00 AM – 7:00 PM, Thursday: 10:00 AM – 7:00 PM, Friday: 10:00 AM – 7:00 PM, Saturday: 10:00 AM – 7:00 PM, Sunday: Closed"
Nice,cbd shop,710Workshop,"93 Bd de la Madeleine, 06000 Nice, France",06 34 91 88 01,"Monday: 9:00 AM – 7:00 PM, Tuesday: 9:00 AM – 7:00 PM, Wednesday: 9:00 AM – 7:00 PM, Thursday: 9:00 AM – 7:00 PM, Friday: 9:00 AM – 7:00 PM, Saturday: Closed, Sunday: Closed"
Nice,cbd shop,Hello CBD,"18 Rue Pertinax, 06000 Nice, France",,
Nice,cbd shop,CBD SHOP MRS GREEN,"201 Av. des Pugets, 06700 Saint-Laurent-du-Var, France",06 67 30 60 65,"Monday: 11:00 AM – 7:00 PM, Tuesday: 11:00 AM – 7:00 PM, Wednesday: 11:00 AM – 7:00 PM, Thursday: 11:00 AM – 7:00 PM, Friday: 11:00 AM – 7:00 PM, Saturday: 11:00 AM – 7:00 PM, Sunday: Closed"
Nantes,cbd shop,Diamond Canapa - CBD Shop,"3 Rue du Pont Sauvetout, 44000 Nantes, France",02 51 17 68 28,"Monday: 10:00 AM – 7:00 PM, Tuesday: 10:00 AM – 7:00 PM, Wednesday: 10:00 AM – 7:00 PM, Thursday: 10:00 AM – 7:00 PM, Friday: 10:00 AM – 7:00 PM, Saturday: 10:00 AM – 7:00 PM, Sunday: Closed"
Nantes,cbd shop,Seven CBD NANTES,"73 Quai de la Fosse, 44000 Nantes, France",09 87 14 09 89,"Monday: Closed, Tuesday: Closed, Wednesday: 11:00 AM – 1:00 PM, 2:30 – 7:00 PM, Thursday: 11:00 AM – 1:00 PM, 2:30 – 7:00 PM, Friday: Closed, Saturday: Closed, Sunday: Closed"
Nantes,cbd shop,GREENBOYZ CORNER Nantes - CBD Shop - Magasin CBD,"21 Rte de Vannes, 44100 Nantes, France",02 49 10 31 27,"Monday: Closed, Tuesday: 10:30 AM – 8:00 PM, Wednesday: 10:30 AM – 8:00 PM, Thursday: 10:30 AM – 8:00 PM, Friday: 10:30 AM – 8:00 PM, Saturday: 10:30 AM – 8:00 PM, Sunday: Closed"
Strasbourg,cbd shop,Distributeur CBD 24/24 Strasbourg,"242 Av. de Colmar, 67100 Strasbourg, France",,"Monday: Open 24 hours, Tuesday: Open 24 hours, Wednesday: Open 24 hours, Thursday: Open 24 hours, Friday: Open 24 hours, Saturday: Open 24 hours, Sunday: Open 24 hours"
Strasbourg,cbd shop,La Casa Verde CBD,"9 Rue Sainte-Madeleine, 67000 Strasbourg, France",06 58 47 14 90,"Monday: 12:30 – 7:30 PM, Tuesday: 12:30 – 7:30 PM, Wednesday: 12:30 – 7:30 PM, Thursday: 12:30 – 7:30 PM, Friday: 12:30 – 7:30 PM, Saturday: 12:30 – 7:30 PM, Sunday: Closed"
Strasbourg,cbd shop,"Yes'vap CBD, cigarettes électronique","92 Rue Boecklin, 67000 Strasbourg, France",,"Monday: 10:00 AM – 12:00 PM, 2:00 – 7:00 PM, Tuesday: 10:00 AM – 12:00 PM, 2:00 – 7:00 PM, Wednesday: 10:00 AM – 12:00 PM, 2:00 – 7:00 PM, Thursday: 10:00 AM – 12:00 PM, 2:00 – 7:00 PM, Friday: 10:00 AM – 12:00 PM, 2:00 – 7:00 PM, Saturday: Closed, Sunday: Closed"
Strasbourg,cbd shop,BSBC,"1 Rue des Pinsons, 67200 Strasbourg, France",,
Montpellier,cbd shop,Novarev - Grossiste CBD - Montpellier,"32 Rue de l'Aiguillerie, 34000 Montpellier, France",06 14 59 66 91,"Monday: Open 24 hours, Tuesday: Open 24 hours, Wednesday: Open 24 hours, Thursday: Open 24 hours, Friday: Open 24 hours, Saturday: Open 24 hours, Sunday: Open 24 hours"
Montpellier,cbd shop,CBD Montpellier - SeedsExperience,"31 Rue de l'Aiguillerie, 34000 Montpellier, France",09 88 08 17 77,"Monday: 3:00 – 7:00 PM, Tuesday: 11:00 AM – 7:00 PM, Wednesday: 11:00 AM – 7:00 PM, Thursday: 11:00 AM – 7:00 PM, Friday: 11:00 AM – 7:00 PM, Saturday: 11:00 AM – 7:00 PM, Sunday: Closed"
Montpellier,cbd shop,Le gars sur CBD shop,"23 Rue Croix de las Cazes, 34000 Montpellier, France",06 64 20 32 96,"Monday: Open 24 hours, Tuesday: Open 24 hours, Wednesday: Open 24 hours, Thursday: Open 24 hours, Friday: Open 24 hours, Saturday: Open 24 hours, Sunday: Open 24 hours"
Montpellier,cbd shop,Global Bio CBD Montpellier,"7 Bd du Jeu de Paume, 34000 Montpellier, France",04 67 57 21 21,"Monday: 10:00 AM – 7:00 PM, Tuesday: 10:00 AM – 7:00 PM, Wednesday: 10:00 AM – 7:00 PM, Thursday: 10:00 AM – 7:00 PM, Friday: 10:00 AM – 7:00 PM, Saturday: 10:00 AM – 7:00 PM, Sunday: Closed"
Montpellier,cbd shop,Smok' Shop Montpellier- CBD Articles Fumeurs,"36 Rue de l'Aiguillerie, 34000 Montpellier, France",09 83 55 70 99,"Monday: 11:30 AM – 7:00 PM, Tuesday: 10:00 AM – 7:00 PM, Wednesday: 10:00 AM – 7:00 PM, Thursday: 10:00 AM – 7:00 PM, Friday: 10:00 AM – 7:00 PM, Saturday: 10:00 AM – 7:00 PM, Sunday: Closed"
Montpellier,cbd shop,High Society CBD shop | Castelnau le Lez / Le Crès,"345 Rte de Nîmes, 34170 Castelnau-le-Lez, France",09 83 39 21 29,"Monday: 12:00 – 7:00 PM, Tuesday: 11:00 AM – 7:00 PM, Wednesday: 3:00 – 7:00 PM, Thursday: 11:00 AM – 7:00 PM, Friday: 11:00 AM – 7:00 PM, Saturday: 3:00 – 7:00 PM, Sunday: Closed"
Montpellier,cbd shop,Tabac FDJ épicerie cbd shop Vap concept du Chateau D O,"248 Rue Jean Vilar, 34090 Montpellier, France",,"Monday: 7:00 AM – 7:00 PM, Tuesday: 7:00 AM – 7:00 PM, Wednesday: 7:00 AM – 7:00 PM, Thursday: 7:00 AM – 7:00 PM, Friday: 7:00 AM – 7:00 PM, Saturday: 8:00 AM – 6:00 PM, Sunday: Closed"
Bordeaux,cbd shop,ROYAL CBD Bordeaux Rive Gauche livraison gratuite jusqu'à 23h00,"53 Rue Theresia Cabarrus, 33000 Bordeaux, France",07 67 55 44 21,"Monday: 10:00 AM – 11:00 PM, Tuesday: 10:00 AM – 11:00 PM, Wednesday: 10:00 AM – 11:00 PM, Thursday: 10:00 AM – 11:00 PM, Friday: 10:00 AM – 12:00 AM, Saturday: 10:00 AM – 12:00 AM, Sunday: 10:00 AM – 11:00 PM"
Bordeaux,cbd shop,CBD Vapote Victoire,"110 Cr Aristide Briand, 33000 Bordeaux, France",,"Monday: 6:00 AM – 11:00 PM, Tuesday: 6:00 AM – 11:00 PM, Wednesday: 6:00 AM – 11:00 PM, Thursday: 6:00 AM – 11:00 PM, Friday: 6:00 AM – 11:00 PM, Saturday: 6:00 AM – 11:00 PM, Sunday: 6:00 AM – 11:00 PM"
Bordeaux,cbd shop,CBD Shop El Estanco,"110 Cr Aristide Briand, 33000 Bordeaux, France",,
Bordeaux,cbd shop,All 4 CBD,"38 Rue du Loup, 33000 Bordeaux, France",05 56 06 10 00,"Monday: 10:30 AM – 7:00 PM, Tuesday: 10:30 AM – 7:00 PM, Wednesday: 10:30 AM – 7:00 PM, Thursday: 10:30 AM – 7:00 PM, Friday: 10:30 AM – 7:00 PM, Saturday: 10:30 AM – 7:00 PM, Sunday: Closed"
Bordeaux,cbd shop,Ora CBD,"140 Rue Abbé de l'Épée, 33000 Bordeaux, France",06 81 22 70 74,
Bordeaux,cbd shop,Le Lab du Bonheur Bordeaux - Boutique de CBD - Espace Bien être du corps et de l’esprit,"37 Cr d'Alsace-et-Lorraine, 33000 Bordeaux, France",06 67 10 37 06,"Monday: Closed, Tuesday: 1:30 – 7:00 PM, Wednesday: 1:30 – 7:00 PM, Thursday: 1:30 – 7:00 PM, Friday: 1:30 – 7:00 PM, Saturday: 1:30 – 7:00 PM, Sunday: Closed"
Bordeaux,cbd shop,La petite ferme du CBD,"9 Rue de Condé, 33000 Bordeaux, France",,"Monday: Open 24 hours, Tuesday: Open 24 hours, Wednesday: Open 24 hours, Thursday: Open 24 hours, Friday: Open 24 hours, Saturday: Open 24 hours, Sunday: Closed"
Lille,cbd shop,CBD 24 7 - Lille,"8b Av. de Bretagne, 59000 Lille, France",06 33 59 69 45,"Monday: Open 24 hours, Tuesday: Open 24 hours, Wednesday: Open 24 hours, Thursday: Open 24 hours, Friday: Open 24 hours, Saturday: Open 24 hours, Sunday: Open 24 hours"
Lille,cbd shop,Lille au CBD,"Lille FR, 106 Av. de la République, 59110 La Madeleine, France",03 20 55 57 15,"Monday: 7:30 AM – 8:00 PM, Tuesday: 7:30 AM – 8:00 PM, Wednesday: 7:30 AM – 8:00 PM, Thursday: 7:30 AM – 8:00 PM, Friday: 7:30 AM – 8:30 PM, Saturday: 10:00 AM – 7:00 PM, Sunday: Closed"
Lille,cbd shop,Tom & Jazy à Lille,"145 Rue Léon Gambetta, 59000 Lille, France",06 59 56 54 93,"Monday: Closed, Tuesday: 11:30 AM – 7:30 PM, Wednesday: 11:30 AM – 7:30 PM, Thursday: 11:30 AM – 7:30 PM, Friday: 11:30 AM – 7:30 PM, Saturday: 11:30 AM – 7:30 PM, Sunday: Closed"
Lille,cbd shop,Boutique CBD Lille - CBD Lille Express Livraison | CBD Lille store,"197 Rue Pierre Mauroy, 59800 Lille, France",,
Rennes,cbd shop,forCBD,"22 Rue du Puits Jacob, 35000 Rennes, France",07 87 19 28 60,
Rennes,cbd shop,Bat8 35V,"4 Rue du Bourbonnais, 35000 Rennes, France",,"Monday: 12:00 PM – 2:00 AM, Tuesday: 12:00 PM – 2:00 AM, Wednesday: 12:00 PM – 2:00 AM, Thursday: 12:00 PM – 2:00 AM, Friday: 12:00 PM – 2:00 AM, Saturday: 12:00 PM – 2:00 AM, Sunday: 12:00 PM – 2:00 AM"
Rennes,cbd shop,Bleuenn'Breizh,"Rue de Lorient, 35000 Rennes, France",07 81 24 07 07,
Reims,cbd shop,CBD.FR REIMS,"5 Rue du Colonel Fabien, 51100 Reims, France",06 99 41 68 99,"Monday: 12:00 – 7:00 PM, Tuesday: 12:00 – 7:00 PM, Wednesday: 12:00 – 7:00 PM, Thursday: 12:00 – 7:00 PM, Friday: 12:00 – 9:00 PM, Saturday: 12:00 – 9:00 PM, Sunday: 1:00 – 5:00 PM"
Reims,cbd shop,Frenchy Freeze - Grossiste de CBD Reims,"Centre d'affaires Regus, 9 Rue Gaston Boyer, 51100 Reims, France",04 28 67 86 36,"Monday: Open 24 hours, Tuesday: Open 24 hours, Wednesday: Open 24 hours, Thursday: Open 24 hours, Friday: Open 24 hours, Saturday: Open 24 hours, Sunday: Open 24 hours"
Reims,cbd shop,Indoor Shop,"11 Rue de l'Université, 51100 Reims, France",07 69 67 47 81,"Monday: Closed, Tuesday: 12:00 – 7:30 PM, Wednesday: 12:00 – 7:30 PM, Thursday: 12:00 – 7:30 PM, Friday: 12:00 – 7:30 PM, Saturday: 12:00 – 7:30 PM, Sunday: Closed"
Toulon,cbd shop,Les Jardins -CBD Shop Toulon- 24h/7j,"256 Av. de Claret, 83000 Toulon, France",06 56 78 60 58,"Monday: Open 24 hours, Tuesday: Open 24 hours, Wednesday: Open 24 hours, Thursday: Open 24 hours, Friday: Open 24 hours, Saturday: Open 24 hours, Sunday: Open 24 hours"
Toulon,cbd shop,GALACTICA CBD,"Rue Laindet Lalonde, 83000 Toulon, France",06 27 44 26 29,"Monday: Closed, Tuesday: 10:00 AM – 12:00 PM, 2:00 – 7:00 PM, Wednesday: 10:00 AM – 12:00 PM, 2:00 – 7:00 PM, Thursday: 10:00 AM – 12:00 PM, 2:00 – 7:00 PM, Friday: 10:00 AM – 12:00 PM, 2:00 – 7:00 PM, Saturday: 10:00 AM – 12:00 PM, 2:00 – 7:00 PM, Sunday: Closed"
Toulon,cbd shop,GALACTICA CBD,"45 Av. Dr Fontan, 83200 Toulon, France",06 27 44 26 29,"Monday: Closed, Tuesday: 10:00 AM – 12:00 PM, 2:00 – 7:00 PM, Wednesday: 10:00 AM – 12:00 PM, 2:00 – 7:00 PM, Thursday: 10:00 AM – 12:00 PM, 2:00 – 7:00 PM, Friday: 10:00 AM – 12:00 PM, 2:00 – 7:00 PM, Saturday: 10:00 AM – 12:00 PM, 2:00 – 7:00 PM, Sunday: Closed"
Toulon,cbd shop,LA CASA VERDE CBD SHOP TOULON- H4CBD- THCP,"38 Rue Lamalgue, 83000 Toulon, France",09 83 80 21 75,"Monday: 10:00 AM – 1:00 PM, 3:00 – 7:00 PM, Tuesday: 10:00 AM – 1:00 PM, 3:00 – 7:00 PM, Wednesday: 10:00 AM – 1:00 PM, 3:00 – 7:00 PM, Thursday: 10:00 AM – 1:00 PM, 3:00 – 7:00 PM, Friday: 10:00 AM – 1:00 PM, 3:00 – 7:00 PM, Saturday: 10:00 AM – 1:00 PM, 3:00 – 7:00 PM, Sunday: 10:00 AM – 1:00 PM"
Le Havre,cbd shop,CBD Harfleur Naenae « Le Havre Harfleur Gonfreville »,"37 Rue de la République, 76700 Harfleur, France",06 86 75 96 78,"Monday: 7:00 AM – 8:00 PM, Tuesday: 7:00 AM – 8:00 PM, Wednesday: 7:00 AM – 8:00 PM, Thursday: 7:00 AM – 8:00 PM, Friday: 7:00 AM – 8:00 PM, Saturday: 8:30 AM – 8:00 PM, Sunday: Closed"
Le Havre,cbd shop,LE BALTO LE HAVRE SANVIC | CBD & VAPE SHOP,"26 Rue Irène Joliot Curie, 76620 Le Havre, France",,"Monday: 6:30 AM – 8:00 PM, Tuesday: 6:30 AM – 8:00 PM, Wednesday: 6:30 AM – 8:00 PM, Thursday: 6:30 AM – 8:00 PM, Friday: 6:30 AM – 8:00 PM, Saturday: 6:30 AM – 8:00 PM, Sunday: 6:30 AM – 8:00 PM"
Le Havre,cbd shop,Cig Conseil Le Havre,"70 Quai Frissard, 76600 Le Havre, France",06 50 30 25 42,"Monday: 10:00 AM – 7:00 PM, Tuesday: 10:00 AM – 7:00 PM, Wednesday: 10:00 AM – 7:00 PM, Thursday: 10:00 AM – 7:00 PM, Friday: 10:00 AM – 7:00 PM, Saturday: 10:00 AM – 7:00 PM, Sunday: Closed"
Grenoble,cbd shop,Dr Smoke,"3 Rue Thiers, 38000 Grenoble, France",06 35 53 50 29,"Monday: 10:00 AM – 8:00 PM, Tuesday: 10:00 AM – 8:00 PM, Wednesday: 10:00 AM – 8:00 PM, Thursday: 10:00 AM – 8:00 PM, Friday: 10:00 AM – 8:00 PM, Saturday: 10:00 AM – 8:00 PM, Sunday: 10:00 AM – 8:00 PM"
Grenoble,cbd shop,CANNABILLION,"16 Bis Rue des Clercs, 38000 Grenoble, France",06 78 03 70 97,"Monday: 1:30 – 7:00 PM, Tuesday: 1:30 – 7:00 PM, Wednesday: 1:30 – 7:00 PM, Thursday: 1:30 – 7:00 PM, Friday: 1:30 – 7:00 PM, Saturday: 1:30 – 7:00 PM, Sunday: Closed"
Dijon,cbd shop,Green Moutarde - Cbd - Dijon,"Rue de l'Hôpital, 21000 Dijon, France",06 64 11 29 97,"Monday: Open 24 hours, Tuesday: Open 24 hours, Wednesday: Open 24 hours, Thursday: Open 24 hours, Friday: Open 24 hours, Saturday: Open 24 hours, Sunday: Open 24 hours"
Dijon,cbd shop,CBD Distributeur Nabisca.fr,"75 Rue Daubenton, 21000 Dijon, France",,"Monday: 9:00 AM – 9:00 PM, Tuesday: 9:00 AM – 9:00 PM, Wednesday: 9:00 AM – 9:00 PM, Thursday: 9:00 AM – 9:00 PM, Friday: 9:00 AM – 9:00 PM, Saturday: 9:00 AM – 9:00 PM, Sunday: 9:00 AM – 9:00 PM"
Dijon,cbd shop,BERBIZ COFFEE CBD,"45 Rue Berbisey, 21000 Dijon, France",06 40 98 29 86,"Monday: Closed, Tuesday: 2:30 – 8:00 PM, Wednesday: 2:00 – 8:00 PM, Thursday: 2:00 PM – 2:00 AM, Friday: 2:00 PM – 2:00 AM, Saturday: 2:00 PM – 2:00 AM, Sunday: Closed"
Dijon,cbd shop,CBD de nabisca.fr,"126 Rue Berbisey, 21000 Dijon, France",,
Dijon,cbd shop,Tabac Presse Loto-Jeux CBD,"78 Rue d'Auxonne, 21000 Dijon, France",03 80 67 49 07,"Monday: 6:30 AM – 8:00 PM, Tuesday: 6:30 AM – 8:00 PM, Wednesday: 6:30 AM – 8:00 PM, Thursday: 6:30 AM – 8:00 PM, Friday: 6:30 AM – 8:00 PM, Saturday: 8:00 AM – 8:00 PM, Sunday: Closed"
Dijon,cbd shop,CBD Weed Paradise dijon,"Galerie Bossuet, 9 Rue du Chapeau Rouge, 21000 Dijon, France",06 48 97 68 27,
Angers,cbd shop,Nosferatu&Qlnt,"25 Rue Maillé, 49100 Angers, France",,"Monday: Open 24 hours, Tuesday: Open 24 hours, Wednesday: Open 24 hours, Thursday: Open 24 hours, Friday: Open 24 hours, Saturday: Open 24 hours, Sunday: Open 24 hours"
Angers,cbd shop,CBD Angers - Kanandja - Boutique de CBD en ligne,"49000 Angers, France",,"Monday: Open 24 hours, Tuesday: Open 24 hours, Wednesday: Open 24 hours, Thursday: Open 24 hours, Friday: Open 24 hours, Saturday: Open 24 hours, Sunday: Open 24 hours"
Angers,cbd shop,Dream Flower Cbd,"Rue des Cloîtres Saint-Martin, 49100 Angers, France",06 78 86 64 94,
Nîmes,cbd shop,Shop CBD La Voie Du Chanvre Nîmes,"539 Av. Jean Prouvé, 30900 Nîmes, France",04 11 25 01 46,"Monday: 10:00 AM – 1:00 PM, 1:30 – 7:00 PM, Tuesday: 10:00 AM – 1:00 PM, 1:30 – 7:00 PM, Wednesday: 10:00 AM – 1:00 PM, 1:30 – 7:00 PM, Thursday: 10:00 AM – 1:00 PM, 1:30 – 7:00 PM, Friday: 10:00 AM – 1:00 PM, 1:30 – 7:00 PM, Saturday: 10:00 AM – 1:00 PM, 1:30 – 7:00 PM, Sunday: Closed"
Nîmes,cbd shop,Therap CBD,"22 Bd Gambetta CENTRE COMMERCIAL LA COUPOLE, 30000 Nîmes, France",07 86 23 50 60,"Monday: 9:30 AM – 7:00 PM, Tuesday: 9:30 AM – 7:00 PM, Wednesday: 9:30 AM – 7:00 PM, Thursday: 9:30 AM – 7:00 PM, Friday: 9:30 AM – 7:00 PM, Saturday: 9:30 AM – 7:30 PM, Sunday: Closed"
Nîmes,cbd shop,Smoker's Street - Nîmes - Cigarette Electronique E-liquides et CBD,"Centre commercial des 7 Collines, 42 Rue du Forez, 30000 Nîmes, France",07 62 74 90 90,"Monday: 9:00 AM – 7:00 PM, Tuesday: 9:00 AM – 7:00 PM, Wednesday: 9:00 AM – 7:00 PM, Thursday: 9:00 AM – 7:00 PM, Friday: 9:00 AM – 7:00 PM, Saturday: 9:00 AM – 7:00 PM, Sunday: Closed"
Nîmes,cbd shop,Nîmes chicha,"71 Rte de Beaucaire, 30000 Nîmes, France",04 85 23 58 47,"Monday: 10:00 AM – 7:00 PM, Tuesday: 10:00 AM – 7:00 PM, Wednesday: 10:00 AM – 7:00 PM, Thursday: 10:00 AM – 7:00 PM, Friday: 10:00 AM – 7:00 PM, Saturday: 10:00 AM – 7:00 PM, Sunday: 10:00 AM – 7:00 PM"
Villeurbanne,cbd shop,Vapo Viridis Shop | Magasin cigarette électroniques & CBD,"48 Rue du 8 Mai 1945, 69100 Villeurbanne, France",,"Monday: 7:00 AM – 11:00 PM, Tuesday: 7:00 AM – 11:00 PM, Wednesday: 7:00 AM – 11:00 PM, Thursday: 7:00 AM – 11:00 PM, Friday: 7:00 AM – 11:00 PM, Saturday: 7:00 AM – 11:00 PM, Sunday: Closed"
Villeurbanne,cbd shop,WARDA SHOP,"12 Av. Antoine Dutrievoz, 69100 Villeurbanne, France",04 11 62 46 83,"Monday: 11:00 AM – 7:00 PM, Tuesday: 11:00 AM – 7:00 PM, Wednesday: 11:00 AM – 7:00 PM, Thursday: 11:00 AM – 7:00 PM, Friday: 11:00 AM – 7:00 PM, Saturday: 11:00 AM – 8:00 PM, Sunday: 11:00 AM – 8:00 PM"
La Rochelle,cbd shop,Lin’jy shop CBD la rochelle,"6 Rue du Cordouan, 17000 La Rochelle, France",05 48 19 82 53,"Monday: 2:00 – 6:00 PM, Tuesday: 10:30 AM – 6:30 PM, Wednesday: 10:30 AM – 6:30 PM, Thursday: 10:30 AM – 6:30 PM, Friday: 10:30 AM – 7:00 PM, Saturday: 10:30 AM – 7:00 PM, Sunday: Closed"
La Rochelle,cbd shop,Art De Nature - CBD Shop - Livraison,"4 Rue des Dames, 17000 La Rochelle, France",07 61 60 17 69,"Monday: 10:00 AM – 1:00 PM, 2:00 – 7:00 PM, Tuesday: 10:00 AM – 1:00 PM, 2:00 – 7:00 PM, Wednesday: 10:00 AM – 1:00 PM, 2:00 – 7:00 PM, Thursday: 10:00 AM – 1:00 PM, 2:00 – 7:00 PM, Friday: 10:00 AM – 1:00 PM, 2:00 – 7:00 PM, Saturday: 10:00 AM – 1:00 PM, 2:00 – 7:00 PM, Sunday: Closed"
La Rochelle,cbd shop,H4CBD / THCP /CBD Shop La Rochelle Marakush,"11 Rue du Cerf-Volant, 17000 La Rochelle, France",06 20 23 84 48,
Le Mans,cbd shop,CBD Le Mans Gorilla Coffeeshop,"195 Rue nationale, 72000 Le Mans, France",07 83 74 06 28,"Monday: 9:00 AM – 7:00 PM, Tuesday: 9:00 AM – 7:00 PM, Wednesday: 9:00 AM – 7:00 PM, Thursday: 9:00 AM – 7:00 PM, Friday: 9:00 AM – 7:00 PM, Saturday: 10:00 AM – 7:00 PM, Sunday: Closed"
Le Mans,cbd shop,Zad Cbd Coffee Shop,"22 Rue nationale, 72100 Le Mans, France",,
Le Mans,cbd shop,LaB CBD,"77 Av. du Panorama, 72100 Le Mans, France",,
Aix-en-Provence,cbd shop,Pure Plant CBD,"8 Rue Peyresc, 13100 Aix-en-Provence, France",07 83 67 43 54,"Monday: 2:00 – 10:00 PM, Tuesday: 2:00 – 10:00 PM, Wednesday: 2:00 – 10:00 PM, Thursday: 2:00 – 10:00 PM, Friday: 2:00 – 10:00 PM, Saturday: 2:00 – 10:00 PM, Sunday: Closed"
Aix-en-Provence,cbd shop,Cbd pas cher 13 / H4CBD-THCP,"18 Rue de la Verrerie, 13100 Aix-en-Provence, France",06 21 56 40 16,"Monday: 11:30 AM – 7:30 PM, Tuesday: 11:30 AM – 7:30 PM, Wednesday: 11:30 AM – 7:30 PM, Thursday: 11:30 AM – 7:30 PM, Friday: 11:30 AM – 7:30 PM, Saturday: 11:30 AM – 7:30 PM, Sunday: Closed"
Aix-en-Provence,cbd shop,Maky - CBD,"13 Rue Van Loo, 13100 Aix-en-Provence, France",09 82 46 61 04,"Monday: Closed, Tuesday: 10:15 AM – 6:00 PM, Wednesday: Closed, Thursday: 10:15 AM – 6:00 PM, Friday: Closed, Saturday: 12:00 – 7:00 PM, Sunday: Closed"
Aix-en-Provence,cbd shop,THCP - H4CBD - H3CBN - Aix-en-Provence - Marseille,"80 Rue des Cordeliers, 13100 Aix-en-Provence, France",09 83 27 12 60,"Monday: 11:00 AM – 1:30 PM, 2:30 – 7:00 PM, Tuesday: 11:00 AM – 1:30 PM, 2:30 – 7:00 PM, Wednesday: 11:00 AM – 1:30 PM, 2:30 – 7:00 PM, Thursday: 11:00 AM – 1:30 PM, 2:30 – 7:00 PM, Friday: 11:00 AM – 1:30 PM, 2:30 – 7:00 PM, Saturday: 11:00 AM – 1:30 PM, 2:30 – 7:00 PM, Sunday: 11:00 AM – 1:30 PM, 2:30 – 7:00 PM"
Brest,cbd shop,Distributeur de CBD 24/24h Brest,"124 Rue Jean Jaurès, 29200 Brest, France",,"Monday: Open 24 hours, Tuesday: Open 24 hours, Wednesday: Open 24 hours, Thursday: Open 24 hours, Friday: Open 24 hours, Saturday: Open 24 hours, Sunday: Open 24 hours"
Brest,cbd shop,O'CBD Shop Brest,"7 Rue Coat ar Gueven, 29200 Brest, France",02 98 44 93 79,"Monday: 10:00 AM – 1:00 PM, 2:00 – 7:30 PM, Tuesday: 10:00 AM – 1:00 PM, 2:00 – 7:30 PM, Wednesday: 10:00 AM – 1:00 PM, 2:00 – 7:30 PM, Thursday: 10:00 AM – 1:00 PM, 2:00 – 7:30 PM, Friday: 10:00 AM – 1:00 PM, 2:00 – 7:30 PM, Saturday: 10:00 AM – 1:00 PM, 2:00 – 7:30 PM, Sunday: Closed"
Brest,cbd shop,Purple Store - Boutique CBD Bien-être,"15 Rue Amiral Linois, 29200 Brest, France",02 29 61 53 25,"Monday: 10:00 AM – 12:00 PM, 2:00 – 7:00 PM, Tuesday: 10:00 AM – 12:00 PM, 2:00 – 7:00 PM, Wednesday: 10:00 AM – 12:00 PM, 2:00 – 7:00 PM, Thursday: Closed, Friday: 10:00 AM – 12:00 PM, 2:00 – 7:00 PM, Saturday: 10:00 AM – 12:00 PM, 2:00 – 7:00 PM, Sunday: Closed"
Brest,cbd shop,L’EcoVapoteur - Cigarette Electronique Brest Centre - VAPE & CBD,"35 Rue Yves Collet, 29200 Brest, France",02 29 62 13 05,"Monday: 10:00 AM – 1:00 PM, 1:30 – 7:00 PM, Tuesday: 10:00 AM – 1:00 PM, 1:30 – 7:00 PM, Wednesday: 10:00 AM – 1:00 PM, 1:30 – 7:00 PM, Thursday: 10:00 AM – 1:00 PM, 1:30 – 7:00 PM, Friday: 10:00 AM – 1:00 PM, 1:30 – 7:00 PM, Saturday: 10:00 AM – 1:00 PM, 1:30 – 7:00 PM, Sunday: Closed"
Tours,cbd shop,CBD Tours - Le Chanvre Breton,"32 Rue Colbert, 37000 Tours, France",06 41 39 31 64,"Monday: 11:00 AM – 1:30 PM, 2:30 – 7:30 PM, Tuesday: 11:00 AM – 1:30 PM, 2:30 – 7:30 PM, Wednesday: 11:00 AM – 1:30 PM, 2:30 – 7:30 PM, Thursday: 11:00 AM – 1:30 PM, 2:30 – 7:30 PM, Friday: 11:00 AM – 1:30 PM, 2:30 – 7:30 PM, Saturday: 11:00 AM – 1:30 PM, 2:30 – 7:30 PM, Sunday: Closed"
Tours,cbd shop,MARAKUSH CBD-H4CBD-H3CBN-TOURS,"12 Rue Jules Charpentier, 37000 Tours, France",09 81 83 61 25,"Monday: Closed, Tuesday: 11:00 AM – 1:00 PM, 2:00 – 7:00 PM, Wednesday: 11:00 AM – 1:00 PM, 2:00 – 7:00 PM, Thursday: 11:00 AM – 1:00 PM, 2:00 – 7:00 PM, Friday: 11:00 AM – 1:00 PM, 2:00 – 7:00 PM, Saturday: 11:00 AM – 1:00 PM, 2:00 – 7:00 PM, Sunday: Closed"
Tours,cbd shop,la-vapetourangelle.fr : cigarette electronique e-liquide & CBD Shop,"53 Av. André Maginot, 37100 Tours, France",06 19 23 11 66,"Monday: 10:00 AM – 12:30 PM, 1:30 – 8:30 PM, Tuesday: 10:00 AM – 12:30 PM, 1:30 – 8:30 PM, Wednesday: 10:00 AM – 1:30 PM, 2:30 – 8:00 PM, Thursday: 10:00 AM – 12:30 PM, 1:30 – 8:00 PM, Friday: 10:00 AM – 12:30 PM, 1:30 – 8:00 PM, Saturday: 10:00 AM – 1:30 PM, 2:30 – 8:00 PM, Sunday: 10:00 AM – 12:30 PM, 1:30 – 8:00 PM"
Tours,cbd shop,CBD Tours - Ligne Verte CBD Products,"83 Rue Colbert, 37000 Tours, France",02 47 20 73 19,
Tours,cbd shop,CBD Tours - Le Chanvre Breton place du monstre,"49 Pl. du Grand Marché, 37000 Tours, France",,
Tours,cbd shop,CBD joue les tours - Le Chanvre Breton,"49 Rue Gamard, 37300 Joué-lès-Tours, France",07 84 88 85 81,"Monday: 11:00 AM – 1:30 PM, 2:30 – 7:30 PM, Tuesday: 11:00 AM – 1:30 PM, 2:30 – 7:30 PM, Wednesday: 11:00 AM – 1:30 PM, 2:30 – 7:30 PM, Thursday: 11:00 AM – 1:30 PM, 2:30 – 7:30 PM, Friday: 11:00 AM – 1:30 PM, 2:30 – 7:30 PM, Saturday: 11:00 AM – 1:30 PM, 2:30 – 7:30 PM, Sunday: Closed"
Amiens,cbd shop,VALALA - CBD SHOP,"7 Rue Saint-Jacques, 80000 Amiens, France",03 65 67 11 70,"Monday: 2:00 – 9:00 PM, Tuesday: 2:00 – 9:00 PM, Wednesday: 2:00 – 9:00 PM, Thursday: 2:00 – 9:00 PM, Friday: 2:00 – 9:00 PM, Saturday: 2:00 – 9:00 PM, Sunday: Closed"
Amiens,cbd shop,O'ZEN - Weed Paradise Amiens - CBD Shop,"37 Rue du Général Leclerc, 80000 Amiens, France",03 22 49 83 19,"Monday: 2:00 – 7:00 PM, Tuesday: 10:00 AM – 12:00 PM, 2:00 – 8:00 PM, Wednesday: 10:00 AM – 12:00 PM, 2:00 – 8:00 PM, Thursday: 10:00 AM – 12:00 PM, 2:00 – 8:00 PM, Friday: 10:00 AM – 12:00 PM, 2:00 – 8:00 PM, Saturday: 10:00 AM – 12:00 PM, 2:00 – 8:00 PM, Sunday: Closed"
Amiens,cbd shop,CBD Shop - Premium CBD France,"186 Chau. Jules Ferry, 80090 Amiens, France",03 22 48 26 69,"Monday: 11:00 AM – 7:00 PM, Tuesday: 11:00 AM – 7:00 PM, Wednesday: 11:00 AM – 7:00 PM, Thursday: 11:00 AM – 7:00 PM, Friday: 11:00 AM – 7:00 PM, Saturday: 11:00 AM – 7:00 PM, Sunday: Closed"
Amiens,cbd shop,Essence & bien-être CBD,"3 All. du Cahier Gris, 80080 Amiens, France",06 50 27 82 62,
Amiens,cbd shop,M&J Green CBD Shop Amiens,"10 Rue Robert Pierre, 80000 Amiens, France",,
Amiens,cbd shop,Le Therapeute,"18 Rue Saint-Martin aux Waides, 80000 Amiens, France",,"Monday: 10:00 AM – 7:30 PM, Tuesday: 10:00 AM – 7:30 PM, Wednesday: 10:00 AM – 7:30 PM, Thursday: 10:00 AM – 7:30 PM, Friday: 10:00 AM – 7:30 PM, Saturday: 10:00 AM – 7:30 PM, Sunday: Closed"
Limoges,cbd shop,La chanvre du cbd - H4CBD,"33 Av. de Louyat, 87100 Limoges, France",06 27 92 03 89,"Monday: 11:30 AM – 10:00 PM, Tuesday: 2:00 – 9:00 PM, Wednesday: 2:00 – 9:00 PM, Thursday: 2:00 – 9:00 PM, Friday: 2:00 – 9:00 PM, Saturday: 2:00 – 9:00 PM, Sunday: 10:00 AM – 1:00 PM"
Perpignan,cbd shop,FRENCHY CBD SHOP PERPIGNAN,"150 Av. Maréchal Joffre, 66000 Perpignan, France",06 36 07 01 79,"Monday: 10:00 AM – 7:30 PM, Tuesday: 10:00 AM – 7:30 PM, Wednesday: 10:00 AM – 7:30 PM, Thursday: 10:00 AM – 7:30 PM, Friday: 10:00 AM – 7:30 PM, Saturday: 10:00 AM – 7:30 PM, Sunday: Closed"
Perpignan,cbd shop,CBD Perpignan by sanchristello,"84 Av. Général de Gaulle, 66000 Perpignan, France",07 79 75 93 67,"Monday: 10:00 AM – 2:00 PM, 3:00 – 8:00 PM, Tuesday: 10:00 AM – 2:00 PM, 3:00 – 8:00 PM, Wednesday: 10:00 AM – 2:00 PM, 3:00 – 8:00 PM, Thursday: 10:00 AM – 2:00 PM, 3:00 – 8:00 PM, Friday: 10:00 AM – 2:00 PM, 3:00 – 8:00 PM, Saturday: 10:00 AM – 2:00 PM, 3:00 – 8:00 PM, Sunday: Closed"
Perpignan,cbd shop,Seeds CBD Shop,"9 Rue des Lices, 66100 Perpignan, France",07 89 43 79 55,"Monday: 12:00 – 9:00 PM, Tuesday: 12:00 – 9:00 PM, Wednesday: 12:00 – 9:00 PM, Thursday: 12:00 – 9:00 PM, Friday: 12:00 – 9:00 PM, Saturday: 12:00 – 9:00 PM, Sunday: 3:00 – 8:00 PM"
Perpignan,cbd shop,FRENCHY CBD SHOP - PERPIGNAN,"38 Rue Jean Payra, 66000 Perpignan, France",06 20 99 42 33,"Monday: 10:30 AM – 7:30 PM, Tuesday: 10:30 AM – 7:30 PM, Wednesday: 10:30 AM – 7:30 PM, Thursday: 10:30 AM – 7:30 PM, Friday: 10:30 AM – 7:30 PM, Saturday: 10:30 AM – 7:30 PM, Sunday: Closed"
Perpignan,cbd shop,Emilie - CBD Shop PERPIGNAN,"11 Rue Maximilien de Sully, 66000 Perpignan, France",04 68 67 83 77,"Monday: 9:00 AM – 6:00 PM, Tuesday: 9:00 AM – 6:00 PM, Wednesday: 9:00 AM – 6:00 PM, Thursday: 9:00 AM – 6:00 PM, Friday: 9:00 AM – 6:00 PM, Saturday: 9:00 AM – 6:00 PM, Sunday: 12:00 – 5:00 PM"
Perpignan,cbd shop,Deli Hemp - CBD Perpignan,"1158 Chem. de la Fossella, 66100 Perpignan, France",04 68 38 80 50,"Monday: 10:00 AM – 1:00 PM, 2:00 – 7:00 PM, Tuesday: 10:00 AM – 1:00 PM, 2:00 – 7:00 PM, Wednesday: 10:00 AM – 1:00 PM, 2:00 – 7:00 PM, Thursday: 10:00 AM – 1:00 PM, 2:00 – 7:00 PM, Friday: 10:00 AM – 1:00 PM, 2:00 – 7:00 PM, Saturday: 10:00 AM – 1:00 PM, 2:00 – 7:00 PM, Sunday: Closed"
Perpignan,cbd shop,CBD Épicerie Lancaster,"210 Av. Maréchal Joffre, 66000 Perpignan, France",09 81 99 29 40,"Monday: 10:00 AM – 6:00 PM, Tuesday: 10:00 AM – 6:00 PM, Wednesday: 10:00 AM – 7:00 PM, Thursday: 10:00 AM – 6:00 PM, Friday: 10:00 AM – 6:00 PM, Saturday: 2:00 – 7:00 PM, Sunday: Closed"
Perpignan,cbd shop,Bad Pirate CBD Perpignan ( Saint-Esteve ),"38 Av. Torremila, 66240 Saint-Estève, France",07 78 61 88 78,"Monday: Closed, Tuesday: Closed, Wednesday: 4:00 – 8:00 PM, Thursday: 4:00 – 8:00 PM, Friday: 4:00 – 8:00 PM, Saturday: 4:00 – 8:00 PM, Sunday: Closed"
Perpignan,cbd shop,Cd Project,"20 Rue des Cardeurs, 66000 Perpignan, France",04 68 29 01 89,"Monday: Closed, Tuesday: 2:00 – 7:00 PM, Wednesday: 2:00 – 7:00 PM, Thursday: 2:00 – 7:00 PM, Friday: 2:00 – 7:00 PM, Saturday: 2:00 – 7:00 PM, Sunday: Closed"
Perpignan,cbd shop,CBD ATARAXIE,"7 Bd Félix Mercader, 66000 Perpignan, France",07 61 40 46 89,
Boulogne-Billancourt,cbd shop,Weediz -Vape et CBD shop,"223 Bd Jean Jaurès, 92100 Boulogne-Billancourt, France",06 95 13 15 17,"Monday: 11:00 AM – 8:00 PM, Tuesday: 11:00 AM – 8:00 PM, Wednesday: 11:00 AM – 8:00 PM, Thursday: 11:00 AM – 8:00 PM, Friday: 11:00 AM – 8:00 PM, Saturday: 11:00 AM – 8:00 PM, Sunday: 10:30 AM – 7:30 PM"
Boulogne-Billancourt,cbd shop,Relax shop boulogne Billancourt,"255 Bd Jean Jaurès, 92100 Boulogne-Billancourt, France",06 88 36 11 75,"Monday: 11:00 AM – 1:00 PM, 2:00 – 8:00 PM, Tuesday: 11:00 AM – 1:00 PM, 2:00 – 8:00 PM, Wednesday: 11:00 AM – 1:00 PM, 2:00 – 8:00 PM, Thursday: 11:00 AM – 1:00 PM, 2:00 – 8:00 PM, Friday: 11:00 AM – 1:00 PM, 2:00 – 8:00 PM, Saturday: 11:00 AM – 1:00 PM, 2:00 – 7:00 PM, Sunday: Closed"
Metz,cbd shop,The Good Green - CBD Shop - Metz,"19 Rue Haute Seille, 57000 Metz, France",03 87 35 85 34,"Monday: 1:00 – 8:00 PM, Tuesday: 1:00 – 8:00 PM, Wednesday: 1:00 – 8:00 PM, Thursday: 1:00 – 8:00 PM, Friday: 1:00 – 8:00 PM, Saturday: 1:00 – 8:00 PM, Sunday: Closed"
Metz,cbd shop,CBD Shop,"Bd Solidarité, 57070 Metz, France",,
Metz,cbd shop,High Society - CBD Metz,"26 Pl. Saint-Simplice, 57000 Metz, France",06 02 07 92 18,"Monday: 2:00 – 7:00 PM, Tuesday: 10:00 AM – 7:00 PM, Wednesday: 2:00 – 7:00 PM, Thursday: 10:00 AM – 7:00 PM, Friday: 10:00 AM – 7:00 PM, Saturday: 10:00 AM – 6:00 PM, Sunday: Closed"
Besançon,cbd shop,DR MULLER CBD,"14 Rue de Belfort, 25000 Besançon, France",06 31 68 71 43,"Monday: 9:00 AM – 8:00 PM, Tuesday: 9:00 AM – 8:00 PM, Wednesday: 9:00 AM – 8:00 PM, Thursday: 9:00 AM – 8:00 PM, Friday: 9:00 AM – 8:00 PM, Saturday: 9:00 AM – 8:00 PM, Sunday: 9:00 AM – 8:00 PM"
Besançon,cbd shop,DISCOUNT VAPE & CBD / H4CBD / CBG / CBN,"76c Rue de Vesoul, 25000 Besançon, France",,"Monday: 10:58 AM – 7:59 PM, Tuesday: 10:58 AM – 7:59 PM, Wednesday: 10:58 AM – 7:59 PM, Thursday: 10:58 AM – 7:59 PM, Friday: 10:58 AM – 7:59 PM, Saturday: 10:58 AM – 7:59 PM, Sunday: 10:58 AM – 7:59 PM"
Besançon,cbd shop,Bio CBD La Mouillere,"13 Rue de la Mouillère, 25000 Besançon, France",07 49 32 41 94,
Argenteuil,cbd shop,"B'VAPE ARGENTEUIL CIGARETTE ELECTRONIQUE, PUFF, CBD, ELIQUID","2 Bd Léon Feix, 95100 Argenteuil, France",07 79 75 86 04,"Monday: 7:00 AM – 9:00 PM, Tuesday: 7:00 AM – 9:00 PM, Wednesday: 7:00 AM – 9:00 PM, Thursday: 7:00 AM – 9:00 PM, Friday: 7:00 AM – 9:00 PM, Saturday: 7:00 AM – 9:00 PM, Sunday: 7:00 AM – 9:00 PM"
Rouen,cbd shop,CBD Shop - GREEN GARDEN Rouen,"59 Rue Cauchoise, 76000 Rouen, France",06 95 99 61 08,"Monday: Closed, Tuesday: 1:00 – 7:30 PM, Wednesday: 1:00 – 7:30 PM, Thursday: 1:00 – 7:30 PM, Friday: 1:00 – 7:30 PM, Saturday: 1:00 – 7:30 PM, Sunday: Closed"
Rouen,cbd shop,GREENPOWER NIGHT SHOP,"61 Rue de la République, 76000 Rouen, France",09 82 51 73 04,"Monday: Closed, Tuesday: 3:00 – 10:00 PM, Wednesday: 3:00 – 10:00 PM, Thursday: 3:00 – 10:00 PM, Friday: 4:00 – 11:00 PM, Saturday: 4:00 – 11:00 PM, Sunday: Closed"
Rouen,cbd shop,Green power shop CBD,"12 Rue Pierre Corneille, 76300 Sotteville-lès-Rouen, France",09 82 51 73 04,"Monday: Closed, Tuesday: 12:00 – 7:00 PM, Wednesday: 12:00 – 7:00 PM, Thursday: 12:00 – 7:00 PM, Friday: 12:00 – 7:00 PM, Saturday: 12:00 – 7:00 PM, Sunday: Closed"
Rouen,cbd shop,CBD HOUSE - Boutique Fleur CBD Sotteville-lès-Rouen,"455 Rue de Paris, 76300 Sotteville-lès-Rouen, France",07 53 51 48 89,"Monday: 10:30 AM – 7:00 PM, Tuesday: 10:30 AM – 7:00 PM, Wednesday: 10:30 AM – 7:00 PM, Thursday: 10:30 AM – 7:00 PM, Friday: 10:30 AM – 7:00 PM, Saturday: 10:30 AM – 7:00 PM, Sunday: Closed"
Mulhouse,cbd shop,CBD'eau Brunstatt Mulhouse,"203 Av. d'Altkirch, 68350 Brunstatt-Didenheim, France",03 89 61 83 38,"Monday: Closed, Tuesday: 10:30 AM – 7:00 PM, Wednesday: 10:30 AM – 7:00 PM, Thursday: 10:30 AM – 7:00 PM, Friday: 10:30 AM – 7:00 PM, Saturday: 10:30 AM – 5:00 PM, Sunday: Closed"
Mulhouse,cbd shop,CLC VAP,"23 Rue Louis Pasteur, 68100 Mulhouse, France",09 67 35 41 91,"Monday: 9:00 AM – 7:00 PM, Tuesday: 9:00 AM – 7:00 PM, Wednesday: 9:00 AM – 7:00 PM, Thursday: 9:00 AM – 7:00 PM, Friday: 9:00 AM – 7:00 PM, Saturday: 9:00 AM – 7:00 PM, Sunday: Closed"
Montreuil,cbd shop,CBD Vincennes et Chicha - La Tisanerie,"9 Rue de Montreuil, 94300 Vincennes, France",01 46 80 61 37,"Monday: Closed, Tuesday: 10:30 AM – 7:30 PM, Wednesday: 10:30 AM – 7:30 PM, Thursday: 10:30 AM – 7:30 PM, Friday: 10:30 AM – 7:30 PM, Saturday: 10:30 AM – 7:30 PM, Sunday: Closed"
Montreuil,cbd shop,Huggy Bear CBD,"1 Av. Pasteur, 93100 Montreuil, France",07 69 34 04 10,"Monday: 10:00 AM – 7:00 PM, Tuesday: 10:00 AM – 7:00 PM, Wednesday: 10:00 AM – 7:00 PM, Thursday: 10:00 AM – 7:00 PM, Friday: 10:00 AM – 7:00 PM, Saturday: Closed, Sunday: Closed"
Montreuil,cbd shop,Pariseeds - Boutique en ligne de CBD & Livraison Express,"5 Av. du Général de Gaulle, 94160 Saint-Mandé, France",07 57 59 12 00,"Monday: 9:00 AM – 2:00 PM, Tuesday: 9:00 AM – 2:00 PM, Wednesday: 9:00 AM – 2:00 PM, Thursday: 9:00 AM – 2:00 PM, Friday: 9:00 AM – 2:00 PM, Saturday: 9:00 AM – 2:00 PM, Sunday: 9:00 AM – 2:00 PM"
Caen,cbd shop,CBD Bio SHOP Caen,"20 Pl. de l'Ancienne Boucherie, 14000 Caen, France",06 03 91 79 21,"Monday: Closed, Tuesday: 10:00 AM – 7:00 PM, Wednesday: 10:00 AM – 7:00 PM, Thursday: 10:00 AM – 7:00 PM, Friday: 10:00 AM – 7:00 PM, Saturday: 11:00 AM – 7:00 PM, Sunday: Closed"
Caen,cbd shop,La Gitane CBD Shop Puffs Vape E-liquid Caen,"12 Pl. de la Gare, 14000 Caen, France",02 31 82 20 96,"Monday: 6:30 AM – 12:00 AM, Tuesday: 6:30 AM – 12:00 AM, Wednesday: 6:30 AM – 12:00 AM, Thursday: 6:30 AM – 12:00 AM, Friday: 6:30 AM – 12:00 AM, Saturday: 7:00 AM – 12:00 AM, Sunday: 8:00 AM – 12:00 AM"
Caen,cbd shop,GREEN CBD,"10B Rue Froide, 14000 Caen, France",07 75 78 23 84,
Caen,cbd shop,Caen CBD,"32 Rue Saint-Pierre, 14000 Caen, France",02 31 23 93 47,"Monday: 7:30 AM – 7:30 PM, Tuesday: 7:30 AM – 7:30 PM, Wednesday: 7:30 AM – 7:30 PM, Thursday: 7:30 AM – 7:30 PM, Friday: 7:30 AM – 7:30 PM, Saturday: 8:00 AM – 7:30 PM, Sunday: Closed"
Nancy,cbd shop,CBD 24/24,"73 Bd Lobau, 54000 Nancy, France",,"Monday: Open 24 hours, Tuesday: Open 24 hours, Wednesday: Open 24 hours, Thursday: Open 24 hours, Friday: Open 24 hours, Saturday: Open 24 hours, Sunday: Open 24 hours"
Nancy,cbd shop,Greenfarms Nancy,"11 Rue Leonard de Vinci, 54000 Nancy, France",,"Monday: 10:00 AM – 9:00 PM, Tuesday: 10:00 AM – 9:00 PM, Wednesday: 10:00 AM – 9:00 PM, Thursday: 10:00 AM – 11:00 PM, Friday: 10:00 AM – 11:00 PM, Saturday: 10:00 AM – 11:00 PM, Sunday: Closed"
Nancy,cbd shop,Coffee cbd shop Nancy,"74 Av. du Maréchal de Lattre de Tassigny, 54000 Nancy, France",,"Monday: Closed, Tuesday: 11:00 AM – 8:00 PM, Wednesday: 2:00 – 7:00 PM, Thursday: 11:00 AM – 8:00 PM, Friday: 11:00 AM – 8:00 PM, Saturday: 12:00 – 8:00 PM, Sunday: 4:00 – 7:00 PM"
Nancy,cbd shop,Distributeur CBD un coin de verdure,"27 Rte de Mirecourt, 54000 Nancy, France",,"Monday: Open 24 hours, Tuesday: Open 24 hours, Wednesday: Open 24 hours, Thursday: Open 24 hours, Friday: Open 24 hours, Saturday: Open 24 hours, Sunday: Open 24 hours"
Nancy,cbd shop,ROYAL CBD Nancy - Livraison à domicile SANS FRAIS 7j/7,"23 Rue de Venise, 54500 Vandœuvre-lès-Nancy, France",06 41 25 99 33,"Monday: Open 24 hours, Tuesday: Open 24 hours, Wednesday: Open 24 hours, Thursday: Open 24 hours, Friday: Open 24 hours, Saturday: Open 24 hours, Sunday: Open 24 hours"
Nancy,cbd shop,Le Dispensaire CBD Nancy,"32 Rue de Mon Désert, 54000 Nancy, France",06 65 92 67 31,"Monday: Closed, Tuesday: 2:30 – 8:00 PM, Wednesday: 2:30 – 8:00 PM, Thursday: 2:30 – 8:00 PM, Friday: 2:30 – 8:00 PM, Saturday: 2:30 – 8:00 PM, Sunday: Closed"
Nancy,cbd shop,The Good Green - CBD Shop - Nancy,"38 Rue Raymond Poincaré, 54000 Nancy, France",,
Nancy,cbd shop,CBD VAPE & PHONE,"23 Rue Henri Bazin, 54000 Nancy, France",03 83 46 58 47,
Neuilly-sur-Seine,cbd shop,La Civette de Neuilly cave a cigares vapo puff cbd fdj nickel,"105 Av. Charles de Gaulle, 92200 Neuilly-sur-Seine, France",07 66 49 33 45,"Monday: 7:30 AM – 8:00 PM, Tuesday: 7:30 AM – 8:00 PM, Wednesday: 7:30 AM – 8:00 PM, Thursday: 7:30 AM – 8:00 PM, Friday: 7:30 AM – 8:00 PM, Saturday: 8:30 AM – 8:00 PM, Sunday: 8:30 AM – 8:00 PM"
Neuilly-sur-Seine,cbd shop,Spectre CBD,"58 Rue Pergolèse, 75116 Paris, France",,"Monday: Open 24 hours, Tuesday: Open 24 hours, Wednesday: Open 24 hours, Thursday: Open 24 hours, Friday: Open 24 hours, Saturday: Open 24 hours, Sunday: Open 24 hours"
Neuilly-sur-Seine,cbd shop,Deli Hemp CBD Shop Levallois,"100 Rue Marius Aufan, 92300 Levallois-Perret, France",09 73 10 87 08,"Monday: 10:30 AM – 7:30 PM, Tuesday: 10:30 AM – 7:30 PM, Wednesday: 10:30 AM – 7:30 PM, Thursday: 10:30 AM – 7:30 PM, Friday: 10:30 AM – 7:30 PM, Saturday: 10:30 AM – 7:30 PM, Sunday: Closed"
Versailles,cbd shop,CBD VERSAILLES - WEED LAND,"4 bis Rue du Refuge, 78000 Versailles, France",01 39 50 18 69,"Monday: 10:00 AM – 7:30 PM, Tuesday: 10:00 AM – 7:30 PM, Wednesday: 10:00 AM – 7:30 PM, Thursday: 10:00 AM – 7:30 PM, Friday: 10:00 AM – 7:30 PM, Saturday: 10:00 AM – 7:30 PM, Sunday: Closed"
Versailles,cbd shop,VAPOR LOUNGE VERSAILLES - Magasin de cigarettes électroniques,"29 Rue du Général Leclerc, 78000 Versailles, France",01 39 43 84 63,"Monday: Closed, Tuesday: 10:00 AM – 7:00 PM, Wednesday: 10:00 AM – 7:00 PM, Thursday: 10:00 AM – 7:00 PM, Friday: 10:00 AM – 7:00 PM, Saturday: 10:00 AM – 7:00 PM, Sunday: Closed"
Nanterre,cbd shop,La Civette du Parc TABAC JEUX Vape & CBD,"11 Esp. Charles de Gaulle, 92000 Nanterre, France",01 47 25 37 26,"Monday: 6:30 AM – 7:30 PM, Tuesday: 6:30 AM – 7:30 PM, Wednesday: 6:30 AM – 7:30 PM, Thursday: 6:30 AM – 7:30 PM, Friday: 6:30 AM – 7:30 PM, Saturday: 9:00 AM – 1:00 PM, Sunday: Closed"
Nanterre,cbd shop,La civette de l'île - TABAC - FDJ- Vape Shop- Puff- CBD Shop- Café à emporter- RATP- Chicha,"27 Bd du Général Leclerc, 92000 Nanterre, France",,
Nanterre,cbd shop,Tout cbd / Vente en ligne de CBD,"6 Av. Alsace-Lorraine, 92500 Rueil-Malmaison, France",07 56 98 14 45,
Avignon,cbd shop,Home Cbd,"49 Rue Carreterie, 84000 Avignon, France",,
Créteil,cbd shop,CBD Nature shop 94 Saint-Maur-des-Fossés,"16 BIS Av. Desgenettes, 94100 Saint-Maur-des-Fossés, France",07 80 74 47 36,"Monday: 11:00 AM – 8:30 PM, Tuesday: 11:00 AM – 1:00 PM, 2:00 – 8:30 PM, Wednesday: 11:00 AM – 1:00 PM, 2:00 – 8:30 PM, Thursday: 11:00 AM – 1:00 PM, 2:00 – 8:30 PM, Friday: 11:00 AM – 1:00 PM, 2:00 – 10:30 PM, Saturday: 11:00 AM – 1:00 PM, 2:00 – 10:30 PM, Sunday: 2:00 – 8:30 PM"
Créteil,cbd shop,Bob CBD,"48 Bd de Créteil, 94100 Saint-Maur-des-Fossés, France",06 73 59 57 56,"Monday: Open 24 hours, Tuesday: Open 24 hours, Wednesday: Open 24 hours, Thursday: Open 24 hours, Friday: Open 24 hours, Saturday: Open 24 hours, Sunday: Open 24 hours"
